{
  "norad_id": 59911,
  "name": "TIANQI-27",
  "history": [
    {
      "epoch": "2026-03-28T22:14:01.433472",
      "apogee_km": 901.8096742623147,
      "perigee_km": 891.7164778967617,
      "latitude_deg": 41.21086837165536,
      "longitude_deg": -99.96507392008789,
      "semi_major_axis_km": 7274.900076079538,
      "eccentricity": 0.0006937,
      "inclination_deg": 44.9776,
      "raan_deg": 258.5651,
      "arg_perigee_deg": 232.2544,
      "mean_anomaly_deg": 127.766,
      "mean_motion_rev_day": 13.99143352
    }
  ]
}