{"fetched_at":"2026-03-29T16:36:15Z","count":15609,"tles":[{"name":"TIANQI-27","line1":"1 59911U 24102C   26087.92640548  .00000074  00000+0  13865-3 0  9991","line2":"2 59911  44.9776 258.5651 0006937 232.2544 127.7660 13.99143352 93666","category":"Other"}]}